{"fetched_at":"2026-07-20T07:40:27.080Z","source":"https://celestrak.org/NORAD/elements/gp.php?GROUP=qianfan&FORMAT=JSON","constellation":"qianfan","records":[{"OBJECT_NAME":"QIANFAN-177","OBJECT_ID":"2026-124N","EPOCH":"2026-07-19T17:20:32.296128","CLASSIFICATION_TYPE":"U","MEAN_MOTION":13.86836261,"ECCENTRICITY":0.0008959,"INCLINATION":88.9996,"RA_OF_ASC_NODE":358.372,"ARG_OF_PERICENTER":53.7326,"MEAN_ANOMALY":306.4672,"EPHEMERIS_TYPE":0,"NORAD_CAT_ID":69394,"ELEMENT_SET_NO":999,"REV_AT_EPOCH":641,"BSTAR":-1.7789,"MEAN_MOTION_DOT":-0.01939432,"MEAN_MOTION_DDOT":0},{"OBJECT_NAME":"QIANFAN-178","OBJECT_ID":"2026-124P","EPOCH":"2026-07-19T17:00:06.761376","CLASSIFICATION_TYPE":"U","MEAN_MOTION":13.89959102,"ECCENTRICITY":0.000869,"INCLINATION":88.999,"RA_OF_ASC_NODE":358.3691,"ARG_OF_PERICENTER":157.9964,"MEAN_ANOMALY":202.1584,"EPHEMERIS_TYPE":0,"NORAD_CAT_ID":69395,"ELEMENT_SET_NO":999,"REV_AT_EPOCH":641,"BSTAR":-1.595,"MEAN_MOTION_DOT":-0.01821535,"MEAN_MOTION_DDOT":0},{"OBJECT_NAME":"QIANFAN-179","OBJECT_ID":"2026-124Q","EPOCH":"2026-07-19T06:19:44.328864","CLASSIFICATION_TYPE":"U","MEAN_MOTION":13.91053735,"ECCENTRICITY":0.000556,"INCLINATION":88.9996,"RA_OF_ASC_NODE":358.4157,"ARG_OF_PERICENTER":135.1022,"MEAN_ANOMALY":225.0602,"EPHEMERIS_TYPE":0,"NORAD_CAT_ID":69396,"ELEMENT_SET_NO":999,"REV_AT_EPOCH":635,"BSTAR":-1.6972,"MEAN_MOTION_DOT":-0.01985697,"MEAN_MOTION_DDOT":0},{"OBJECT_NAME":"QIANFAN-180","OBJECT_ID":"2026-124R","EPOCH":"2026-07-19T16:51:50.872032","CLASSIFICATION_TYPE":"U","MEAN_MOTION":13.87774504,"ECCENTRICITY":0.000634,"INCLINATION":88.9994,"RA_OF_ASC_NODE":358.3692,"ARG_OF_PERICENTER":43.0057,"MEAN_ANOMALY":317.161,"EPHEMERIS_TYPE":0,"NORAD_CAT_ID":69397,"ELEMENT_SET_NO":999,"REV_AT_EPOCH":641,"BSTAR":-1.6795,"MEAN_MOTION_DOT":-0.01845456,"MEAN_MOTION_DDOT":0},{"OBJECT_NAME":"QIANFAN-181","OBJECT_ID":"2026-124S","EPOCH":"2026-07-18T07:36:27.761472","CLASSIFICATION_TYPE":"U","MEAN_MOTION":13.82365223,"ECCENTRICITY":0.00114351,"INCLINATION":89.0002,"RA_OF_ASC_NODE":358.5694,"ARG_OF_PERICENTER":46.2227,"MEAN_ANOMALY":313.9886,"EPHEMERIS_TYPE":0,"NORAD_CAT_ID":69398,"ELEMENT_SET_NO":999,"REV_AT_EPOCH":619,"BSTAR":-2.0717411,"MEAN_MOTION_DOT":-0.0208367,"MEAN_MOTION_DDOT":0},{"OBJECT_NAME":"QIANFAN-182","OBJECT_ID":"2026-124T","EPOCH":"2026-07-18T14:53:11.560416","CLASSIFICATION_TYPE":"U","MEAN_MOTION":13.81529091,"ECCENTRICITY":0.00128762,"INCLINATION":88.9991,"RA_OF_ASC_NODE":358.5228,"ARG_OF_PERICENTER":55.7395,"MEAN_ANOMALY":304.4991,"EPHEMERIS_TYPE":0,"NORAD_CAT_ID":69399,"ELEMENT_SET_NO":999,"REV_AT_EPOCH":623,"BSTAR":-1.9191698,"MEAN_MOTION_DOT":-0.01914545,"MEAN_MOTION_DDOT":0},{"OBJECT_NAME":"QIANFAN-183","OBJECT_ID":"2026-125A","EPOCH":"2026-07-18T01:23:10.452768","CLASSIFICATION_TYPE":"U","MEAN_MOTION":13.88525817,"ECCENTRICITY":0.0013769,"INCLINATION":88.9937,"RA_OF_ASC_NODE":276.9881,"ARG_OF_PERICENTER":87.2367,"MEAN_ANOMALY":273.0381,"EPHEMERIS_TYPE":0,"NORAD_CAT_ID":69401,"ELEMENT_SET_NO":999,"REV_AT_EPOCH":605,"BSTAR":-1.7083,"MEAN_MOTION_DOT":-0.01919362,"MEAN_MOTION_DDOT":0},{"OBJECT_NAME":"QIANFAN-184","OBJECT_ID":"2026-125B","EPOCH":"2026-07-19T15:17:47.484096","CLASSIFICATION_TYPE":"U","MEAN_MOTION":13.83407349,"ECCENTRICITY":0.0018043,"INCLINATION":88.9942,"RA_OF_ASC_NODE":276.8164,"ARG_OF_PERICENTER":78.7914,"MEAN_ANOMALY":281.5283,"EPHEMERIS_TYPE":0,"NORAD_CAT_ID":69402,"ELEMENT_SET_NO":999,"REV_AT_EPOCH":627,"BSTAR":-1.7661,"MEAN_MOTION_DOT":-0.01806531,"MEAN_MOTION_DDOT":0},{"OBJECT_NAME":"QIANFAN-185","OBJECT_ID":"2026-125C","EPOCH":"2026-07-18T19:26:20.780736","CLASSIFICATION_TYPE":"U","MEAN_MOTION":13.97505058,"ECCENTRICITY":0.0023579,"INCLINATION":88.994,"RA_OF_ASC_NODE":276.8965,"ARG_OF_PERICENTER":67.8826,"MEAN_ANOMALY":292.4851,"EPHEMERIS_TYPE":0,"NORAD_CAT_ID":69403,"ELEMENT_SET_NO":999,"REV_AT_EPOCH":616,"BSTAR":-1.4625,"MEAN_MOTION_DOT":-0.01923222,"MEAN_MOTION_DDOT":0},{"OBJECT_NAME":"QIANFAN-186","OBJECT_ID":"2026-125D","EPOCH":"2026-07-19T06:19:50.769120","CLASSIFICATION_TYPE":"U","MEAN_MOTION":13.83608371,"ECCENTRICITY":0.0023921,"INCLINATION":88.995,"RA_OF_ASC_NODE":276.8537,"ARG_OF_PERICENTER":64.1817,"MEAN_ANOMALY":296.1816,"EPHEMERIS_TYPE":0,"NORAD_CAT_ID":69404,"ELEMENT_SET_NO":999,"REV_AT_EPOCH":622,"BSTAR":-1.8719,"MEAN_MOTION_DOT":-0.01935766,"MEAN_MOTION_DDOT":0},{"OBJECT_NAME":"QIANFAN-187","OBJECT_ID":"2026-125E","EPOCH":"2026-07-19T00:27:28.873152","CLASSIFICATION_TYPE":"U","MEAN_MOTION":13.86169466,"ECCENTRICITY":0.0019665,"INCLINATION":88.9939,"RA_OF_ASC_NODE":276.8709,"ARG_OF_PERICENTER":65.3471,"MEAN_ANOMALY":294.9745,"EPHEMERIS_TYPE":0,"NORAD_CAT_ID":69405,"ELEMENT_SET_NO":999,"REV_AT_EPOCH":619,"BSTAR":-1.8387,"MEAN_MOTION_DOT":-0.01981504,"MEAN_MOTION_DDOT":0},{"OBJECT_NAME":"QIANFAN-188","OBJECT_ID":"2026-125F","EPOCH":"2026-07-19T06:31:56.466048","CLASSIFICATION_TYPE":"U","MEAN_MOTION":13.87937433,"ECCENTRICITY":0.0015365,"INCLINATION":88.9938,"RA_OF_ASC_NODE":276.8354,"ARG_OF_PERICENTER":79.8789,"MEAN_ANOMALY":280.4115,"EPHEMERIS_TYPE":0,"NORAD_CAT_ID":69406,"ELEMENT_SET_NO":999,"REV_AT_EPOCH":623,"BSTAR":-1.73,"MEAN_MOTION_DOT":-0.01924233,"MEAN_MOTION_DDOT":0},{"OBJECT_NAME":"QIANFAN-189","OBJECT_ID":"2026-125G","EPOCH":"2026-07-18T05:04:41.604096","CLASSIFICATION_TYPE":"U","MEAN_MOTION":13.89102194,"ECCENTRICITY":0.00170944,"INCLINATION":88.9942,"RA_OF_ASC_NODE":276.9556,"ARG_OF_PERICENTER":87.9593,"MEAN_ANOMALY":272.3537,"EPHEMERIS_TYPE":0,"NORAD_CAT_ID":69407,"ELEMENT_SET_NO":999,"REV_AT_EPOCH":607,"BSTAR":-1.7799792,"MEAN_MOTION_DOT":-0.02013904,"MEAN_MOTION_DDOT":0},{"OBJECT_NAME":"QIANFAN-190","OBJECT_ID":"2026-125H","EPOCH":"2026-07-18T15:15:14.425632","CLASSIFICATION_TYPE":"U","MEAN_MOTION":13.90772112,"ECCENTRICITY":0.00181996,"INCLINATION":88.9941,"RA_OF_ASC_NODE":276.9081,"ARG_OF_PERICENTER":60.6776,"MEAN_ANOMALY":299.6213,"EPHEMERIS_TYPE":0,"NORAD_CAT_ID":69408,"ELEMENT_SET_NO":999,"REV_AT_EPOCH":614,"BSTAR":-1.7044465,"MEAN_MOTION_DOT":-0.01986894,"MEAN_MOTION_DDOT":0},{"OBJECT_NAME":"QIANFAN-191","OBJECT_ID":"2026-125J","EPOCH":"2026-07-18T18:17:58.437024","CLASSIFICATION_TYPE":"U","MEAN_MOTION":13.87491573,"ECCENTRICITY":0.0015195,"INCLINATION":88.9936,"RA_OF_ASC_NODE":276.8889,"ARG_OF_PERICENTER":72.3532,"MEAN_ANOMALY":287.9298,"EPHEMERIS_TYPE":0,"NORAD_CAT_ID":69409,"ELEMENT_SET_NO":999,"REV_AT_EPOCH":616,"BSTAR":-1.7367,"MEAN_MOTION_DOT":-0.01917362,"MEAN_MOTION_DDOT":0},{"OBJECT_NAME":"QIANFAN-192","OBJECT_ID":"2026-125K","EPOCH":"2026-07-19T14:43:57.141120","CLASSIFICATION_TYPE":"U","MEAN_MOTION":13.87415842,"ECCENTRICITY":0.0017046,"INCLINATION":88.9905,"RA_OF_ASC_NODE":276.7886,"ARG_OF_PERICENTER":47.6107,"MEAN_ANOMALY":312.6505,"EPHEMERIS_TYPE":0,"NORAD_CAT_ID":69410,"ELEMENT_SET_NO":999,"REV_AT_EPOCH":628,"BSTAR":-1.894,"MEAN_MOTION_DOT":-0.0207722,"MEAN_MOTION_DDOT":0}]}
