QIANFAN-177             
1 69394U 26124N   26200.72259602 -.01939432  00000+0 -17789+1 0  9993
2 69394  88.9996 358.3720 0008959  53.7326 306.4672 13.86836261  6410
QIANFAN-178             
1 69395U 26124P   26200.70841159 -.01821535  00000+0 -15950+1 0  9998
2 69395  88.9990 358.3691 0008690 157.9964 202.1584 13.89959102  6416
QIANFAN-179             
1 69396U 26124Q   26200.26370751 -.01985697  00000+0 -16972+1 0  9990
2 69396  88.9996 358.4157 0005560 135.1022 225.0602 13.91053735  6355
QIANFAN-180             
1 69397U 26124R   26200.70267213 -.01845456  00000+0 -16795+1 0  9999
2 69397  88.9994 358.3692 0006340  43.0057 317.1610 13.87774504  6417
QIANFAN-181             
1 69398U 26124S   26199.31698798 -.02083670  00000+0 -20717+1 0  9992
2 69398  89.0002 358.5694 0011435  46.2227 313.9886 13.82365223  6192
QIANFAN-182             
1 69399U 26124T   26199.62027269 -.01914545  00000+0 -19192+1 0  9994
2 69399  88.9991 358.5228 0012876  55.7395 304.4991 13.81529091  6233
QIANFAN-183             
1 69401U 26125A   26199.05775987 -.01919362  00000+0 -17083+1 0  9992
2 69401  88.9937 276.9881 0013769  87.2367 273.0381 13.88525817  6059
QIANFAN-184             
1 69402U 26125B   26200.63735514 -.01806531  00000+0 -17661+1 0  9997
2 69402  88.9942 276.8164 0018043  78.7914 281.5283 13.83407349  6275
QIANFAN-185             
1 69403U 26125C   26199.80996274 -.01923222  00000+0 -14625+1 0  9990
2 69403  88.9940 276.8965 0023579  67.8826 292.4851 13.97505058  6165
QIANFAN-186             
1 69404U 26125D   26200.26378205 -.01935766  00000+0 -18719+1 0  9996
2 69404  88.9950 276.8537 0023921  64.1817 296.1816 13.83608371  6229
QIANFAN-187             
1 69405U 26125E   26200.01908418 -.01981504  00000+0 -18387+1 0  9997
2 69405  88.9939 276.8709 0019665  65.3471 294.9745 13.86169466  6190
QIANFAN-188             
1 69406U 26125F   26200.27218132 -.01924233  00000+0 -17300+1 0  9993
2 69406  88.9938 276.8354 0015365  79.8789 280.4115 13.87937433  6235
QIANFAN-189             
1 69407U 26125G   26199.21159264 -.02013904  00000+0 -17800+1 0  9995
2 69407  88.9942 276.9556 0017094  87.9593 272.3537 13.89102194  6070
QIANFAN-190             
1 69408U 26125H   26199.63558363 -.01986894  00000+0 -17044+1 0  9991
2 69408  88.9941 276.9081 0018199  60.6776 299.6213 13.90772112  6147
QIANFAN-191             
1 69409U 26125J   26199.76248191 -.01917362  00000+0 -17367+1 0  9993
2 69409  88.9936 276.8889 0015195  72.3532 287.9298 13.87491573  6160
QIANFAN-192             
1 69410U 26125K   26200.61385580 -.02077220  00000+0 -18940+1 0  9995
2 69410  88.9905 276.7886 0017046  47.6107 312.6505 13.87415842  6289
